HERMES-3                
1 63835U 25052BR  26068.93751242  .00020316  00000+0  69958-3 0  9995
2 63835  97.3987 324.6131 0007993 112.9583 247.2502 15.30039785 54863
STARLINK-34097          
1 63903U 25095P   26068.32607552  .00026511  00000+0  96947-3 0  9996
2 63903  42.9972 178.1411 0000626 237.0962 122.9829 15.27579570 47723
